SKYSAT-C4               
1 41771U 16058B   26179.96204948  .00015723  00000+0  29246-3 0  9990
2 41771  96.9170 201.2427 0002284 139.8061 220.3360 15.48951488547292
SKYSAT-C5               
1 41772U 16058C   26179.64583985  .00007110  00000+0  21411-3 0  9994
2 41772  97.0464 219.7751 0001435 208.0815 152.0351 15.34628337545500
SKYSAT-C2               
1 41773U 16058D   26180.52264314  .00010732  00000+0  25069-3 0  9993
2 41773  97.0157 202.1544 0003483  43.1646 316.9875 15.42344800546952
SKYSAT-C3               
1 41774U 16058E   26180.51647781  .00020389  00000+0  32737-3 0  9995
2 41774  96.9002 210.8916 0001332 128.5168 231.6206 15.53060938548027
ALSAT-1B                
1 41785U 16059C   26180.54151954  .00000714  00000+0  12045-3 0  9993
2 41785  97.7746 188.7718 0009048 177.2546 182.8713 14.72285288522398
PATHFINDER 1            
1 41787U 16059E   26180.54467481  .00000590  00000+0  11120-3 0  9995
2 41787  97.8167 179.2633 0028822 164.0031 196.2092 14.67676622521526
SCATSAT 1               
1 41790U 16059H   26179.91324474  .00001182  00000+0  16162-3 0  9991
2 41790  98.1188 243.8003 0053997 209.0025 150.8183 14.79550346103328
GOKTURK 1A              
1 41875U 16073A   26180.55842374  .00000250  00000+0  58131-4 0  9995
2 41875  98.1245  75.0388 0001418  79.0872 281.0489 14.62782657510639
RESOURCESAT-2A          
1 41877U 16074A   26180.45806500  .00000487  00000+0  24222-3 0  9993
2 41877  98.7532 253.8622 0003149  60.2042 299.9448 14.21605918496047
CARTOSAT-2D             
1 41948U 17008A   26180.47500743  .00004723  00000+0  22694-3 0  9990
2 41948  97.4108 239.5513 0004935 183.3733 176.7470 15.19299671519449
SENTINEL-2B             
1 42063U 17013A   26180.51517470  .00000373  00000+0  15897-3 0  9999
2 42063  98.5697 255.1158 0001231  90.2955 269.8369 14.30821258486404
CARTOSAT-2E             
1 42767U 17036C   26180.49275667  .00005306  00000+0  25485-3 0  9996
2 42767  97.4278 240.0924 0002284 256.7543 103.3437 15.19261711500015
FORMOSAT-5              
1 42920U 17049A   26180.46627977  .00000156  00000+0  50658-4 0  9992
2 42920  98.2253 255.5032 0012304  50.1061 310.1213 14.50903079468459
SENTINEL-5P             
1 42969U 17064A   26180.46643690  .00000041  00000+0  40276-4 0  9990
2 42969  98.7927 122.5105 0001032  90.6285 269.5009 14.19520951451307
SKYSAT-C11              
1 42987U 17068A   26180.38744507  .00027094  00000+0  35553-3 0  9992
2 42987  97.4358 329.7550 0000453 135.9675 224.1617 15.58519188485143
SKYSAT-C10              
1 42988U 17068B   26180.35437369  .00008279  00000+0  24750-3 0  9996
2 42988  97.4516 317.3217 0001220 107.3955 252.7421 15.34837057484220
SKYSAT-C9               
1 42989U 17068C   26180.31142060  .00012267  00000+0  29070-3 0  9996
2 42989  97.4438 318.3295 0009480  95.0146 265.2183 15.41855076484629
SKYSAT-C8               
1 42990U 17068D   26180.37221765  .00009367  00000+0  25933-3 0  9995
2 42990  97.4535 317.1862 0001322  94.8006 265.3390 15.37207775484189
SKYSAT-C7               
1 42991U 17068E   26180.36621610  .00009178  00000+0  25435-3 0  9995
2 42991  97.4547 318.1705 0006909  70.9633 289.2360 15.37160431484243
SKYSAT-C6               
1 42992U 17068F   26180.34365513  .00008765  00000+0  26735-3 0  9996
2 42992  97.4581 318.0698 0005216 117.8473 242.3299 15.34167342484184
CARTOSAT-2F             
1 43111U 18004A   26180.72256507  .00004216  00000+0  20382-3 0  9994
2 43111  97.4789 240.2348 0001368 165.0031 195.1244 15.19160745469232
GAOFEN-1 03             
1 43260U 18031B   26180.54316328  .00000743  00000+0  11423-3 0  9994
2 43260  98.0513 242.8927 0003475  53.8170 306.3361 14.76442639444516
GAOFEN-1 04             
1 43262U 18031D   26180.51895579  .00000601  00000+0  93808-4 0  9994
2 43262  98.0530 243.0607 0001935  63.1545 296.9862 14.76450565444500
SENTINEL-3B             
1 43437U 18039A   26179.83127209  .00000104  00000+0  61079-4 0  9990
2 43437  98.6245 247.1963 0000787 110.7212 249.4053 14.26737846425786
GAOFEN-5 01             
1 43461U 18043A   26180.52962840  .00000333  00000+0  78590-4 0  9998
2 43461  98.4577 152.3754 0002817  61.3753 298.7730 14.60613816433495
GAOFEN-11 01            
1 43585U 18063A   26180.52520514  .00016627  00000+0  24352-3 0  9994
2 43585  97.1292 247.3720 0002134 291.9523  68.1505 15.55640677442262
ICESAT-2                
1 43613U 18070A   26180.53049176  .00009116  00000+0  33121-3 0  9994
2 43613  92.0091 294.3137 0006212  91.6089 268.5872 15.28241215434340
HYSIS                   
1 43719U 18096A   26180.52762568  .00000877  00000+0  12678-3 0  9994
2 43719  97.9841 247.1788 0001841  90.0722 270.0700 14.78640360409249
KAZSTSAT                
1 43783U 18099AB  26180.50622569  .00001975  00000+0  16362-3 0  9996
2 43783  97.4294 211.8763 0008470  35.5030 324.6756 14.99909319413156
