OBJECT_NAME,OBJECT_ID,EPOCH,MEAN_MOTION,ECCENTRICITY,INCLINATION,RA_OF_ASC_NODE,ARG_OF_PERICENTER,MEAN_ANOMALY,EPHEMERIS_TYPE,CLASSIFICATION_TYPE,NORAD_CAT_ID,ELEMENT_SET_NO,REV_AT_EPOCH,BSTAR,MEAN_MOTION_DOT,MEAN_MOTION_DDOT
SKYSAT-C4,2016-058B,2026-06-28T23:05:21.075072,15.48951488,.00022843,96.9170,201.2427,139.8061,220.3360,0,U,41771,999,54729,.29245694E-3,.15723E-3,0
SKYSAT-C5,2016-058C,2026-06-28T15:30:00.563040,15.34628337,.0001435,97.0464,219.7751,208.0815,152.0351,0,U,41772,999,54550,.21411383E-3,.711E-4,0
SKYSAT-C2,2016-058D,2026-06-29T12:32:36.367296,15.42344800,.0003483,97.0157,202.1544,43.1646,316.9875,0,U,41773,999,54695,.25069E-3,.10732E-3,0
SKYSAT-C3,2016-058E,2026-06-29T12:23:43.682784,15.53060938,.0001332,96.9002,210.8916,128.5168,231.6206,0,U,41774,999,54802,.32737E-3,.20389E-3,0
ALSAT-1B,2016-059C,2026-06-29T12:59:47.288256,14.72285288,.0009048,97.7746,188.7718,177.2546,182.8713,0,U,41785,999,52239,.12045E-3,.714E-5,0
PATHFINDER 1,2016-059E,2026-06-29T13:04:19.903584,14.67676622,.0028822,97.8167,179.2633,164.0031,196.2092,0,U,41787,999,52152,.1112E-3,.59E-5,0
SCATSAT 1,2016-059H,2026-06-28T21:55:04.345536,14.79550346,.00539975,98.1188,243.8003,209.0025,150.8183,0,U,41790,999,10332,.16162271E-3,.1182E-4,0
GOKTURK 1A,2016-073A,2026-06-29T13:24:07.811136,14.62782657,.0001418,98.1245,75.0388,79.0872,281.0489,0,U,41875,999,51063,.58131E-4,.25E-5,0
RESOURCESAT-2A,2016-074A,2026-06-29T10:59:36.816000,14.21605918,.0003149,98.7532,253.8622,60.2042,299.9448,0,U,41877,999,49604,.24222E-3,.487E-5,0
CARTOSAT-2D,2017-008A,2026-06-29T11:24:00.641952,15.19299671,.0004935,97.4108,239.5513,183.3733,176.7470,0,U,41948,999,51944,.22694E-3,.4723E-4,0
SENTINEL-2B,2017-013A,2026-06-29T12:21:51.094080,14.30821258,.0001231,98.5697,255.1158,90.2955,269.8369,0,U,42063,999,48640,.15897E-3,.373E-5,0
CARTOSAT-2E,2017-036C,2026-06-29T11:49:34.176288,15.19261711,.0002284,97.4278,240.0924,256.7543,103.3437,0,U,42767,999,50001,.25485E-3,.5306E-4,0
FORMOSAT-5,2017-049A,2026-06-29T11:11:26.572128,14.50903079,.0012304,98.2253,255.5032,50.1061,310.1213,0,U,42920,999,46845,.50658E-4,.156E-5,0
SENTINEL-5P,2017-064A,2026-06-29T11:11:40.148160,14.19520951,.0001032,98.7927,122.5105,90.6285,269.5009,0,U,42969,999,45130,.40276E-4,.41E-6,0
SKYSAT-C11,2017-068A,2026-06-29T09:17:55.254048,15.58519188,.0000453,97.4358,329.7550,135.9675,224.1617,0,U,42987,999,48514,.35553E-3,.27094E-3,0
SKYSAT-C10,2017-068B,2026-06-29T08:30:17.886816,15.34837057,.000122,97.4516,317.3217,107.3955,252.7421,0,U,42988,999,48422,.2475E-3,.8279E-4,0
SKYSAT-C9,2017-068C,2026-06-29T07:28:26.739840,15.41855076,.000948,97.4438,318.3295,95.0146,265.2183,0,U,42989,999,48462,.2907E-3,.12267E-3,0
SKYSAT-C8,2017-068D,2026-06-29T08:55:59.604960,15.37207775,.0001322,97.4535,317.1862,94.8006,265.3390,0,U,42990,999,48418,.25933E-3,.9367E-4,0
SKYSAT-C7,2017-068E,2026-06-29T08:47:21.071040,15.37160431,.0006909,97.4547,318.1705,70.9633,289.2360,0,U,42991,999,48424,.25435E-3,.9178E-4,0
SKYSAT-C6,2017-068F,2026-06-29T08:14:51.803232,15.34167342,.0005216,97.4581,318.0698,117.8473,242.3299,0,U,42992,999,48418,.26735E-3,.8765E-4,0
CARTOSAT-2F,2018-004A,2026-06-29T17:20:29.622048,15.19160745,.0001368,97.4789,240.2348,165.0031,195.1244,0,U,43111,999,46923,.20382E-3,.4216E-4,0
GAOFEN-1 03,2018-031B,2026-06-29T13:02:09.307392,14.76442639,.0003475,98.0513,242.8927,53.8170,306.3361,0,U,43260,999,44451,.11423E-3,.743E-5,0
GAOFEN-1 04,2018-031D,2026-06-29T12:27:17.780256,14.76450565,.0001935,98.0530,243.0607,63.1545,296.9862,0,U,43262,999,44450,.93808E-4,.601E-5,0
SENTINEL-3B,2018-039A,2026-06-28T19:57:01.908576,14.26737846,.00007876,98.6245,247.1963,110.7212,249.4053,0,U,43437,999,42578,.61078967E-4,.104E-5,0
GAOFEN-5 01,2018-043A,2026-06-29T12:42:39.893760,14.60613816,.0002817,98.4577,152.3754,61.3753,298.7730,0,U,43461,999,43349,.7859E-4,.333E-5,0
GAOFEN-11 01,2018-063A,2026-06-29T12:36:17.724096,15.55640677,.0002134,97.1292,247.3720,291.9523,68.1505,0,U,43585,999,44226,.24352E-3,.16627E-3,0
ICESAT-2,2018-070A,2026-06-29T12:43:54.488064,15.28241215,.0006212,92.0091,294.3137,91.6089,268.5872,0,U,43613,999,43434,.33121E-3,.9116E-4,0
HYSIS,2018-096A,2026-06-29T12:39:46.858752,14.78640360,.0001841,97.9841,247.1788,90.0722,270.0700,0,U,43719,999,40924,.12678E-3,.877E-5,0
KAZSTSAT,2018-099AB,2026-06-29T12:08:57.899616,14.99909319,.000847,97.4294,211.8763,35.5030,324.6756,0,U,43783,999,41315,.16362E-3,.1975E-4,0
